CCSDS_OMM_VERS = 2.0
CREATION_DATE  = 
ORIGINATOR     = 

OBJECT_NAME    = SITRO-AIS-65
OBJECT_ID      = 2025-313U
CENTER_NAME    = EARTH
REF_FRAME      = TEME
TIME_SYSTEM    = UTC
MEAN_ELEMENT_THEORY = SGP/SGP4

EPOCH          = 2026-01-19T22:14:46.640544
MEAN_MOTION    = 15.20289808
ECCENTRICITY   = .0015882
INCLINATION    = 97.4130
RA_OF_ASC_NODE = 97.0164
ARG_OF_PERICENTER = 159.1246
MEAN_ANOMALY   = 201.0641

EPHEMERIS_TYPE = 0
CLASSIFICATION_TYPE = U
NORAD_CAT_ID   = 67266
ELEMENT_SET_NO = 999
REV_AT_EPOCH   = 340
BSTAR          = .58499302E-3
MEAN_MOTION_DOT = .12691E-3
MEAN_MOTION_DDOT = 0

CCSDS_OMM_VERS = 2.0
CREATION_DATE  = 
ORIGINATOR     = 

OBJECT_NAME    = 2025-313V
OBJECT_ID      = 2025-313V
CENTER_NAME    = EARTH
REF_FRAME      = TEME
TIME_SYSTEM    = UTC
MEAN_ELEMENT_THEORY = SGP/SGP4

EPOCH          = 2026-01-19T22:13:51.381696
MEAN_MOTION    = 15.20365439
ECCENTRICITY   = .00150755
INCLINATION    = 97.4111
RA_OF_ASC_NODE = 97.0035
ARG_OF_PERICENTER = 164.4867
MEAN_ANOMALY   = 195.6834

EPHEMERIS_TYPE = 0
CLASSIFICATION_TYPE = U
NORAD_CAT_ID   = 67267
ELEMENT_SET_NO = 999
REV_AT_EPOCH   = 340
BSTAR          = .652637E-3
MEAN_MOTION_DOT = .14196E-3
MEAN_MOTION_DDOT = 0

CCSDS_OMM_VERS = 2.0
CREATION_DATE  = 
ORIGINATOR     = 

OBJECT_NAME    = ZORKY-2M 7
OBJECT_ID      = 2025-313W
CENTER_NAME    = EARTH
REF_FRAME      = TEME
TIME_SYSTEM    = UTC
MEAN_ELEMENT_THEORY = SGP/SGP4

EPOCH          = 2026-01-19T22:15:21.085632
MEAN_MOTION    = 15.20235121
ECCENTRICITY   = .00160362
INCLINATION    = 97.4111
RA_OF_ASC_NODE = 97.0007
ARG_OF_PERICENTER = 159.9216
MEAN_ANOMALY   = 200.2653

EPHEMERIS_TYPE = 0
CLASSIFICATION_TYPE = U
NORAD_CAT_ID   = 67268
ELEMENT_SET_NO = 999
REV_AT_EPOCH   = 340
BSTAR          = .50572803E-3
MEAN_MOTION_DOT = .10943E-3
MEAN_MOTION_DDOT = 0

CCSDS_OMM_VERS = 2.0
CREATION_DATE  = 
ORIGINATOR     = 

OBJECT_NAME    = 2025-313X
OBJECT_ID      = 2025-313X
CENTER_NAME    = EARTH
REF_FRAME      = TEME
TIME_SYSTEM    = UTC
MEAN_ELEMENT_THEORY = SGP/SGP4

EPOCH          = 2026-01-19T22:12:56.759616
MEAN_MOTION    = 15.20461440
ECCENTRICITY   = .00158351
INCLINATION    = 97.4138
RA_OF_ASC_NODE = 97.0200
ARG_OF_PERICENTER = 158.3959
MEAN_ANOMALY   = 201.7948

EPHEMERIS_TYPE = 0
CLASSIFICATION_TYPE = U
NORAD_CAT_ID   = 67269
ELEMENT_SET_NO = 999
REV_AT_EPOCH   = 340
BSTAR          = .75543593E-3
MEAN_MOTION_DOT = .165E-3
MEAN_MOTION_DDOT = 0

CCSDS_OMM_VERS = 2.0
CREATION_DATE  = 
ORIGINATOR     = 

OBJECT_NAME    = SITRO-TD-3
OBJECT_ID      = 2025-313Y
CENTER_NAME    = EARTH
REF_FRAME      = TEME
TIME_SYSTEM    = UTC
MEAN_ELEMENT_THEORY = SGP/SGP4

EPOCH          = 2026-01-19T22:15:22.783392
MEAN_MOTION    = 15.20267082
ECCENTRICITY   = .00159642
INCLINATION    = 97.4112
RA_OF_ASC_NODE = 97.0112
ARG_OF_PERICENTER = 160.0859
MEAN_ANOMALY   = 200.1003

EPHEMERIS_TYPE = 0
CLASSIFICATION_TYPE = U
NORAD_CAT_ID   = 67270
ELEMENT_SET_NO = 999
REV_AT_EPOCH   = 340
BSTAR          = .58418496E-3
MEAN_MOTION_DOT = .12666E-3
MEAN_MOTION_DDOT = 0

CCSDS_OMM_VERS = 2.0
CREATION_DATE  = 
ORIGINATOR     = 

OBJECT_NAME    = 2025-313Z
OBJECT_ID      = 2025-313Z
CENTER_NAME    = EARTH
REF_FRAME      = TEME
TIME_SYSTEM    = UTC
MEAN_ELEMENT_THEORY = SGP/SGP4

EPOCH          = 2026-01-19T22:17:15.282240
MEAN_MOTION    = 15.20061618
ECCENTRICITY   = .00160402
INCLINATION    = 97.4106
RA_OF_ASC_NODE = 96.9995
ARG_OF_PERICENTER = 156.2069
MEAN_ANOMALY   = 203.9911

EPHEMERIS_TYPE = 0
CLASSIFICATION_TYPE = U
NORAD_CAT_ID   = 67271
ELEMENT_SET_NO = 999
REV_AT_EPOCH   = 340
BSTAR          = .28823353E-3
MEAN_MOTION_DOT = .6172E-4
MEAN_MOTION_DDOT = 0

CCSDS_OMM_VERS = 2.0
CREATION_DATE  = 
ORIGINATOR     = 

OBJECT_NAME    = 2025-313AA
OBJECT_ID      = 2025-313AA
CENTER_NAME    = EARTH
REF_FRAME      = TEME
TIME_SYSTEM    = UTC
MEAN_ELEMENT_THEORY = SGP/SGP4

EPOCH          = 2026-01-19T22:12:14.946336
MEAN_MOTION    = 15.20463152
ECCENTRICITY   = .00157295
INCLINATION    = 97.4110
RA_OF_ASC_NODE = 97.0028
ARG_OF_PERICENTER = 160.3772
MEAN_ANOMALY   = 199.8072

EPHEMERIS_TYPE = 0
CLASSIFICATION_TYPE = U
NORAD_CAT_ID   = 67272
ELEMENT_SET_NO = 999
REV_AT_EPOCH   = 340
BSTAR          = .67982723E-3
MEAN_MOTION_DOT = .14838E-3
MEAN_MOTION_DDOT = 0

CCSDS_OMM_VERS = 2.0
CREATION_DATE  = 
ORIGINATOR     = 

OBJECT_NAME    = 2025-313AB
OBJECT_ID      = 2025-313AB
CENTER_NAME    = EARTH
REF_FRAME      = TEME
TIME_SYSTEM    = UTC
MEAN_ELEMENT_THEORY = SGP/SGP4

EPOCH          = 2026-01-19T22:17:09.820896
MEAN_MOTION    = 15.20032925
ECCENTRICITY   = .00149893
INCLINATION    = 97.4123
RA_OF_ASC_NODE = 97.0038
ARG_OF_PERICENTER = 164.4179
MEAN_ANOMALY   = 195.7520

EPHEMERIS_TYPE = 0
CLASSIFICATION_TYPE = U
NORAD_CAT_ID   = 67273
ELEMENT_SET_NO = 999
REV_AT_EPOCH   = 340
BSTAR          = .20805126E-3
MEAN_MOTION_DOT = .4429E-4
MEAN_MOTION_DDOT = 0

CCSDS_OMM_VERS = 2.0
CREATION_DATE  = 
ORIGINATOR     = 

OBJECT_NAME    = 2025-313AC
OBJECT_ID      = 2025-313AC
CENTER_NAME    = EARTH
REF_FRAME      = TEME
TIME_SYSTEM    = UTC
MEAN_ELEMENT_THEORY = SGP/SGP4

EPOCH          = 2026-01-19T22:14:43.365120
MEAN_MOTION    = 15.20231505
ECCENTRICITY   = .00157357
INCLINATION    = 97.4099
RA_OF_ASC_NODE = 97.0076
ARG_OF_PERICENTER = 159.4672
MEAN_ANOMALY   = 200.7199

EPHEMERIS_TYPE = 0
CLASSIFICATION_TYPE = U
NORAD_CAT_ID   = 67274
ELEMENT_SET_NO = 999
REV_AT_EPOCH   = 340
BSTAR          = .39762451E-3
MEAN_MOTION_DOT = .8585E-4
MEAN_MOTION_DDOT = 0

CCSDS_OMM_VERS = 2.0
CREATION_DATE  = 
ORIGINATOR     = 

OBJECT_NAME    = 2025-313AD
OBJECT_ID      = 2025-313AD
CENTER_NAME    = EARTH
REF_FRAME      = TEME
TIME_SYSTEM    = UTC
MEAN_ELEMENT_THEORY = SGP/SGP4

EPOCH          = 2026-01-19T22:13:32.349504
MEAN_MOTION    = 15.20296055
ECCENTRICITY   = .00149304
INCLINATION    = 97.4074
RA_OF_ASC_NODE = 97.0017
ARG_OF_PERICENTER = 162.1999
MEAN_ANOMALY   = 197.9762

EPHEMERIS_TYPE = 0
CLASSIFICATION_TYPE = U
NORAD_CAT_ID   = 67275
ELEMENT_SET_NO = 999
REV_AT_EPOCH   = 340
BSTAR          = .4244661E-3
MEAN_MOTION_DOT = .9184E-4
MEAN_MOTION_DDOT = 0

CCSDS_OMM_VERS = 2.0
CREATION_DATE  = 
ORIGINATOR     = 

OBJECT_NAME    = 2025-313AE
OBJECT_ID      = 2025-313AE
CENTER_NAME    = EARTH
REF_FRAME      = TEME
TIME_SYSTEM    = UTC
MEAN_ELEMENT_THEORY = SGP/SGP4

EPOCH          = 2026-01-19T22:13:29.767008
MEAN_MOTION    = 15.20294078
ECCENTRICITY   = .00148914
INCLINATION    = 97.4079
RA_OF_ASC_NODE = 97.0026
ARG_OF_PERICENTER = 162.2758
MEAN_ANOMALY   = 197.9000

EPHEMERIS_TYPE = 0
CLASSIFICATION_TYPE = U
NORAD_CAT_ID   = 67276
ELEMENT_SET_NO = 999
REV_AT_EPOCH   = 340
BSTAR          = .42515819E-3
MEAN_MOTION_DOT = .9198E-4
MEAN_MOTION_DDOT = 0

CCSDS_OMM_VERS = 2.0
CREATION_DATE  = 
ORIGINATOR     = 

OBJECT_NAME    = 2025-313AF
OBJECT_ID      = 2025-313AF
CENTER_NAME    = EARTH
REF_FRAME      = TEME
TIME_SYSTEM    = UTC
MEAN_ELEMENT_THEORY = SGP/SGP4

EPOCH          = 2026-01-19T22:13:58.717920
MEAN_MOTION    = 15.20253585
ECCENTRICITY   = .00148861
INCLINATION    = 97.4080
RA_OF_ASC_NODE = 97.0030
ARG_OF_PERICENTER = 162.0895
MEAN_ANOMALY   = 198.0868

EPHEMERIS_TYPE = 0
CLASSIFICATION_TYPE = U
NORAD_CAT_ID   = 67277
ELEMENT_SET_NO = 999
REV_AT_EPOCH   = 340
BSTAR          = .37684666E-3
MEAN_MOTION_DOT = .8134E-4
MEAN_MOTION_DDOT = 0

