SITRO-AIS-65            
1 67266U 25313U   26019.92692871  .00012691  00000+0  58499-3 0  9999
2 67266  97.4130  97.0164 0015882 159.1246 201.0641 15.20289808  3406
2025-313V               
1 67267U 25313V   26019.92628914  .00014196  00000+0  65264-3 0  9997
2 67267  97.4111  97.0035 0015075 164.4867 195.6834 15.20365439  3402
ZORKY-2M 7              
1 67268U 25313W   26019.92732738  .00010943  00000+0  50573-3 0  9991
2 67268  97.4111  97.0007 0016036 159.9216 200.2653 15.20235121  3403
2025-313X               
1 67269U 25313X   26019.92565694  .00016500  00000+0  75544-3 0  9997
2 67269  97.4138  97.0200 0015835 158.3959 201.7948 15.20461440  3409
SITRO-TD-3              
1 67270U 25313Y   26019.92734703  .00012666  00000+0  58418-3 0  9998
2 67270  97.4112  97.0112 0015964 160.0859 200.1003 15.20267082  3408
2025-313Z               
1 67271U 25313Z   26019.92864910  .00006172  00000+0  28823-3 0  9995
2 67271  97.4106  96.9995 0016040 156.2069 203.9911 15.20061618  3401
2025-313AA              
1 67272U 25313AA  26019.92517299  .00014838  00000+0  67983-3 0  9999
2 67272  97.4110  97.0028 0015729 160.3772 199.8072 15.20463152  3406
2025-313AB              
1 67273U 25313AB  26019.92858589  .00004429  00000+0  20805-3 0  9997
2 67273  97.4123  97.0038 0014989 164.4179 195.7520 15.20032925  3408
2025-313AC              
1 67274U 25313AC  26019.92689080  .00008585  00000+0  39762-3 0  9995
2 67274  97.4099  97.0076 0015735 159.4672 200.7199 15.20231505  3409
2025-313AD              
1 67275U 25313AD  26019.92606886  .00009184  00000+0  42447-3 0  9999
2 67275  97.4074  97.0017 0014930 162.1999 197.9762 15.20296055  3401
2025-313AE              
1 67276U 25313AE  26019.92603897  .00009198  00000+0  42516-3 0  9991
2 67276  97.4079  97.0026 0014891 162.2758 197.9000 15.20294078  3405
2025-313AF              
1 67277U 25313AF  26019.92637405  .00008134  00000+0  37685-3 0  9994
2 67277  97.4080  97.0030 0014886 162.0895 198.0868 15.20253585  3409
